{
    "links": {
        "self": "http://www.neowsapp.com/rest/v1/neo/3625862?api_key=iIulBulltgU6a56xZRHN4H3l9WmuAYTsLGpBGhQ2"
    },
    "id": "3625862",
    "neo_reference_id": "3625862",
    "name": "(2013 CX10)",
    "designation": "2013 CX10",
    "nasa_jpl_url": "http://ssd.jpl.nasa.gov/sbdb.cgi?sstr=3625862",
    "absolute_magnitude_h": 23.8,
    "estimated_diameter": {
        "kilometers": {
            "estimated_diameter_min": 0.046190746,
            "estimated_diameter_max": 0.1032856481
        },
        "meters": {
            "estimated_diameter_min": 46.1907460282,
            "estimated_diameter_max": 103.2856480504
        },
        "miles": {
            "estimated_diameter_min": 0.0287015901,
            "estimated_diameter_max": 0.0641787064
        },
        "feet": {
            "estimated_diameter_min": 151.544447199,
            "estimated_diameter_max": 338.8636855496
        }
    },
    "is_potentially_hazardous_asteroid": false,
    "close_approach_data": [
        {
            "close_approach_date": "2012-08-12",
            "close_approach_date_full": "2012-Aug-12 18:17",
            "epoch_date_close_approach": 1344795420000,
            "relative_velocity": {
                "kilometers_per_second": "12.1936925142",
                "kilometers_per_hour": "43897.2930509458",
                "miles_per_hour": "27276.0707849057"
            },
            "miss_distance": {
                "astronomical": "0.1405850436",
                "lunar": "54.6875819604",
                "kilometers": "21031223.076417132",
                "miles": "13068196.0393831416"
            },
            "orbiting_body": "Earth"
        },
        {
            "close_approach_date": "2013-01-27",
            "close_approach_date_full": "2013-Jan-27 09:51",
            "epoch_date_close_approach": 1359280260000,
            "relative_velocity": {
                "kilometers_per_second": "12.8863451909",
                "kilometers_per_hour": "46390.8426873026",
                "miles_per_hour": "28825.4655575631"
            },
            "miss_distance": {
                "astronomical": "0.1567130004",
                "lunar": "60.9613571556",
                "kilometers": "23443931.061149148",
                "miles": "14567383.2628603224"
            },
            "orbiting_body": "Earth"
        }
    ],
    "orbital_data": {
        "orbit_id": "4",
        "orbit_determination_date": "2017-04-06 08:46:56",
        "first_observation_date": "2013-02-02",
        "last_observation_date": "2013-02-05",
        "data_arc_in_days": 3,
        "observations_used": 19,
        "orbit_uncertainty": "9",
        "minimum_orbit_intersection": ".0861065",
        "jupiter_tisserand_invariant": "5.267",
        "epoch_osculation": "2456327.5",
        "eccentricity": ".1980669303439339",
        "semi_major_axis": "1.179173586932952",
        "inclination": "23.80365203057858",
        "ascending_node_longitude": "135.3723991928082",
        "orbital_period": "467.6974916850512",
        "perihelion_distance": ".9456182942264965",
        "perihelion_argument": "263.8533831043495",
        "aphelion_distance": "1.412728879639408",
        "perihelion_time": "2456233.221051754798",
        "mean_anomaly": "72.569175528374",
        "mean_motion": ".7697283102865666",
        "equinox": "J2000",
        "orbit_class": {
            "orbit_class_type": "APO",
            "orbit_class_description": "Near-Earth asteroid orbits which cross the Earth’s orbit similar to that of 1862 Apollo",
            "orbit_class_range": "a (semi-major axis) > 1.0 AU; q (perihelion) < 1.017 AU"
        }
    },
    "is_sentry_object": false
}